STARLINK-6127           
1 57135U 23090AL  23196.08022299  .00002863  00000+0  25277-4 0  9993
2 57135  43.0001 152.0522 0001389 245.2029 114.8695 15.71350800  3404
STARLINK-6112           
1 57136U 23090AM  23196.08085556 -.00005800  00000+0 -40832-4 0  9999
2 57136  43.0008 152.0548 0001613 278.6049  81.4636 15.71342570  3401
STARLINK-5347           
1 57137U 23090AN  23196.08043469 -.00001339  00000+0 -67734-5 0  9991
2 57137  43.0001 152.0534 0001202 249.9645 110.1093 15.71345896  3408
STARLINK-5336           
1 57138U 23090AP  23196.08075337 -.00005838  00000+0 -41136-4 0  9996
2 57138  42.9998 152.0528 0001380 251.5430 108.5288 15.71336857  3407
STARLINK-5355           
1 57139U 23090AQ  23196.08011777  .00000744  00000+0  91164-5 0  9991
2 57139  43.0006 152.0503 0001343 269.0111  91.0603 15.71349079  3409
STARLINK-5354           
1 57140U 23090AR  23196.08033051 -.00008511  00000+0 -61572-4 0  9993
2 57140  43.0003 152.0504 0001368 261.3742  98.6970 15.71337367  3408
STARLINK-5357           
1 57141U 23090AS  23196.07990730  .00003483  00000+0  29998-4 0  9996
2 57141  43.0006 152.0490 0001333 257.7067 102.3651 15.71351929  3406
STARLINK-5361           
1 57142U 23090AT  23196.07980420 -.00008392  00000+0 -60660-4 0  9999
2 57142  43.0006 152.0463 0001339 251.7058 108.3664 15.71338730  3402
STARLINK-5358           
1 57143U 23090AU  23196.07969826  .00005006  00000+0  41610-4 0  9998
2 57143  43.0002 152.0468 0001618 265.3204  94.7479 15.71347870  3405
STARLINK-5150           
1 57144U 23090AV  23196.08001207  .00004689  00000+0  39181-4 0  9996
2 57144  42.9999 152.0474 0001454 248.1761 111.8952 15.71356598  3405
STARLINK-5768           
1 57145U 23090AW  23196.07917144 -.00004065  00000+0 -27580-4 0  9992
2 57145  43.0003 152.0417 0001376 247.3853 112.6869 15.71346927  3408
STARLINK-5791           
1 57146U 23090AX  23196.07959321  .00008762  00000+0  70196-4 0  9993
2 57146  43.0003 152.0463 0001246 264.0534  96.0192 15.71354178  3409
STARLINK-5765           
1 57147U 23090AY  23196.07896322 -.00003482  00000+0 -23133-4 0  9990
2 57147  43.0002 152.0406 0001293 256.0898 103.9826 15.71340303  3409
STARLINK-5788           
1 57148U 23090AZ  23196.07885471 -.00001117  00000+0 -50773-5 0  9998
2 57148  43.0001 152.0398 0001322 261.2127  98.8591 15.71350674  3408
STARLINK-5778           
1 57149U 23090BA  23196.07854034 -.00004296  00000+0 -29348-4 0  9994
2 57149  43.0001 152.0379 0001432 254.9855 105.0854 15.71345805  3400
STARLINK-5780           
1 57150U 23090BB  23196.07938284  .00000589  00000+0  79356-5 0  9990
2 57150  43.0001 152.0438 0001368 257.4558 102.6157 15.71345532  3400
STARLINK-5776           
1 57151U 23090BC  23196.07927471  .00002827  00000+0  24999-4 0  9996
2 57151  43.0006 152.0431 0001389 254.9084 105.1630 15.71354489  3403
STARLINK-6164           
1 57152U 23090BD  23196.07948640 -.00004311  00000+0 -29457-4 0  9994
2 57152  43.0000 152.0439 0001331 255.4538 104.6182 15.71348147  3403
STARLINK-5879           
1 57153U 23090BE  23196.07843690  .00003234  00000+0  28105-4 0  9994
2 57153  43.0007 152.0376 0001397 263.5358  96.5351 15.71346455  3400
STARLINK-6106           
1 57154U 23090BF  23196.07906799 -.00004546  00000+0 -31256-4 0  9995
2 57154  43.0003 152.0401 0001438 259.7925 100.2781 15.71342668  3401
STARLINK-6108           
1 57155U 23090BG  23196.07864692  .00002952  00000+0  25957-4 0  9999
2 57155  43.0003 152.0394 0001383 255.7106 104.3608 15.71348815  3402
STARLINK-6137           
1 57156U 23090BH  23196.07875185 -.00004134  00000+0 -28105-4 0  9993
2 57156  43.0005 152.0383 0001330 264.7484  95.3232 15.71346271  3400
FALCON 9 DEB            
1 57157U 23090BJ  23196.00910545  .00361673  58586-4  93792-3 0  9999
2 57157  43.0088 150.5895 0025894 139.1734 221.1088 15.93647507  3416
FALCON 9 DEB            
1 57158U 23090BK  23196.06536700  .00350445  55845-4  87993-3 0  9999
2 57158  43.0047 150.1380 0024169 143.4080 216.8452 15.94327736  3420
FALCON 9 DEB            
1 57159U 23090BL  23196.05023191  .00325942  49882-4  77421-3 0  9997
2 57159  43.0025 150.0028 0022550 133.2712 227.0051 15.95423952  3423
FALCON 9 DEB            
1 57160U 23090BM  23196.04950073  .00309060  45377-4  75549-3 0  9993
2 57160  42.9998 149.9939 0020991 135.4551 224.8016 15.94971221  3424
METEOR-M2 3             
1 57166U 23091A   23196.11116698  .00000035  00000+0  34919-4 0  9991
2 57166  98.7634 247.8951 0004642  42.6462 317.5077 14.23833839  2512
STRATOSAT-TK 1 (RS52S)  
1 57167U 23091B   23196.18389199  .00008833  00000+0  65242-3 0  9993
2 57167  97.6630 246.7232 0018405 185.1341 174.9698 15.03335116  2640
2023-091C               
1 57168U 23091C   23196.11619631  .00004171  00000+0  31005-3 0  9995
2 57168  97.6626 246.6583 0018284 184.7903 175.3150 15.03410238  2634
2023-091D               
1 57169U 23091D   23196.11425303  .00002041  00000+0  15357-3 0  9993
2 57169  97.6640 246.6629 0016168 182.8097 177.3040 15.03566620  2631
2023-091E               
1 57170U 23091E   23196.11402635  .00004182  00000+0  30960-3 0  9993
2 57170  97.6645 246.6642 0016292 182.8672 177.2463 15.03595033  2638
2023-091F               
1 57171U 23091F   23196.11358474  .00004262  00000+0  31515-3 0  9991
2 57171  97.6641 246.6640 0016032 180.8977 179.2222 15.03633566  2630
UMKA 1 (RS40S)          
1 57172U 23091G   23196.11607592  .00003740  00000+0  27852-3 0  9999
2 57172  97.6628 246.6586 0018154 184.9546 175.1503 15.03413221  2630
2023-091H               
1 57173U 23091H   23196.12174271  .00005226  00000+0  39241-3 0  9990
2 57173  97.6639 246.6518 0016324 192.1187 167.9648 15.02944029  2630
2023-091J               
1 57174U 23091J   23196.12173369  .00003390  00000+0  25642-3 0  9998
2 57174  97.6637 246.6514 0016066 191.5583 168.5275 15.02918379  2633
CUBEBEL 2 (EU11S)       
1 57175U 23091K   23196.12350087  .00005289  00000+0  39857-3 0  9995
2 57175  97.6638 246.6490 0016442 194.0574 166.0195 15.02794810  2630
2023-091L               
1 57176U 23091L   23196.12036007  .00005023  00000+0  37570-3 0  9995
2 57176  97.6645 246.6568 0019642 184.5726 175.5323 15.03064637  2639
2023-091M               
1 57177U 23091M   23196.11789259  .00004304  00000+0  32090-3 0  9992
2 57177  97.6648 246.6654 0019315 180.6343 179.4861 15.03264587  2634
CUBESX-HSE 3 (RS42S)    
1 57178U 23091N   23196.11818562  .00005273  00000+0  39220-3 0  9991
2 57178  97.6667 246.6689 0019484 179.5013 180.6235 15.03252748  2637
2023-091P               
1 57179U 23091P   23196.11880331  .00003056  00000+0  22976-3 0  9992
2 57179  97.6676 246.6705 0019597 178.4402 181.6888 15.03169949  2637
MONITOR-3 (RS58S)       
1 57180U 23091Q   23196.05209766  .00004833  00000+0  36027-3 0  9990
2 57180  97.6663 246.6016 0019643 179.7830 180.3408 15.03205974  2623
2023-091R               
1 57181U 23091R   23196.11912230  .00002598  00000+0  19627-3 0  9998
2 57181  97.6635 246.6565 0018874 185.3463 174.7563 15.03137004  2630
MONITOR-4 (RS57S)       
1 57182U 23091S   23196.11876549  .00004940  00000+0  36824-3 0  9992
2 57182  97.6657 246.6667 0019675 180.2190 179.9030 15.03198244  2638
2023-091T               
1 57183U 23091T   23196.10682616  .00003946  00000+0  28778-3 0  9996
2 57183  97.6655 246.6749 0015472 174.0642 186.0770 15.04201188  2635
MONITOR-2 (RS39S)       
1 57184U 23091U   23196.10808331  .00003431  00000+0  25163-3 0  9995
2 57184  97.6652 246.6731 0015453 175.3805 184.7566 15.04089005  2638
2023-091V               
1 57185U 23091V   23196.10656513  .00005947  00000+0  43092-3 0  9994
2 57185  97.6649 246.6843 0014405 180.2923 179.8297 15.04252720  2633
2023-091W               
1 57186U 23091W   23196.10503656  .00004283  00000+0  31075-3 0  9994
2 57186  97.6653 246.6759 0014984 173.4152 186.7273 15.04358425  2635
SVYATOBOR 1 (RS60S)     
1 57187U 23091X   23196.10613365  .00005036  00000+0  36534-3 0  9996
2 57187  97.6654 246.6754 0015370 173.9534 186.1880 15.04275984  2637
HORS 1                  
1 57188U 23091Y   23196.10564592  .00005156  00000+0  37351-3 0  9995
2 57188  97.6636 246.6811 0015076 176.3333 183.8006 15.04318979  2635
VIZARD-METEO (RS38S)    
1 57189U 23091Z   23196.10269002  .00006794  00000+0  48718-3 0  9992
2 57189  97.6649 246.6773 0014516 172.6354 187.5088 15.04590819  2633
NANOZOND 1 (RS49S)      
1 57190U 23091AA  23196.10076737  .00008829  00000+0  62864-3 0  9994
2 57190  97.6624 246.6687 0013216 178.2670 181.8604 15.04783535  2631
2023-091AB              
1 57191U 23091AB  23196.11812585  .00003154  00000+0  23668-3 0  9990
2 57191  97.6631 246.6569 0018761 185.0353 175.0686 15.03229293  2633
2023-091AC              
1 57192U 23091AC  23196.11977180  .00005226  00000+0  39022-3 0  9997
2 57192  97.6642 246.6571 0019382 184.6929 175.4117 15.03112126  2632
2023-091AD              
1 57193U 23091AD  23196.11960749  .00005512  00000+0  41113-3 0  9993
2 57193  97.6640 246.6564 0019196 185.7500 174.3508 15.03133177  2634
2023-091AE              
1 57194U 23091AE  23196.11950401  .00005237  00000+0  39078-3 0  9999
2 57194  97.6640 246.6570 0019252 185.1062 174.9970 15.03138186  2636
2023-091AF              
1 57195U 23091AF  23196.10496382  .00004450  00000+0  32267-3 0  9991
2 57195  97.6664 246.6888 0014614 176.8370 183.2951 15.04362982  2637
2023-091AG              
1 57196U 23091AG  23196.10465879  .00005711  00000+0  41220-3 0  9999
2 57196  97.6648 246.6852 0014751 176.1820 183.9521 15.04413269  2631
HORS 2                  
1 57197U 23091AH  23196.10449098  .00006537  00000+0  47094-3 0  9997
2 57197  97.6631 246.6681 0014465 178.4888 181.6385 15.04434515  2635
2023-091AJ              
1 57198U 23091AJ  23196.10381977  .00010371  00000+0  74191-3 0  9998
2 57198  97.6676 246.6929 0014560 177.7639 182.3655 15.04544213  2637
